EYESAT-1 (AO-27)        
1 22825U 93061C   17130.47890374 -.00000013  00000-0  12740-4 0  9995
2 22825  98.8089  95.6039 0009564  82.4365 277.7902 14.29995019231747
CUTE-1 (CO-55)          
1 27844U 03031E   17130.50227321  .00000047  00000-0  41182-4 0  9997
2 27844  98.6902 140.0563 0011013  96.1427 264.1005 14.22034301718920
CUBESAT XI-IV (CO-57)   
1 27848U 03031J   17129.85841130  .00000038  00000-0  37041-4 0  9996
2 27848  98.6995 139.6643 0010875 106.1118 254.1258 14.21649144718726
CUBESAT XI 5            
1 28895U 05043F   17130.43022123  .00000130  00000-0  33863-4 0  9994
2 28895  97.8606 294.4718 0015429 262.2440  97.7011 14.63385018614731
CUTE-1.7+APD II (CO-65) 
1 32785U 08021C   17130.44740460  .00000219  00000-0  29556-4 0  9990
2 32785  97.5692 156.4382 0011647 296.6300  63.3723 14.87865165489218
COMPASS-1               
1 32787U 08021E   17130.54005145  .00000179  00000-0  22691-4 0  9995
2 32787  97.5632 165.1625 0010963 262.7731  97.2242 14.92554357489837
AAUSAT-II               
1 32788U 08021F   17130.52241410  .00000656  00000-0  66887-4 0  9996
2 32788  97.5622 167.9206 0010370 254.0135 105.9943 14.93823650489950
DELFI-C3 (DO-64)        
1 32789U 08021G   17130.38849205  .00001329  00000-0  98483-4 0  9992
2 32789  97.5616 189.4127 0011940 225.1281 134.8976 15.04741770491089
CANX-2                  
1 32790U 08021H   17130.48751899  .00000176  00000-0  25030-4 0  9993
2 32790  97.5669 154.8773 0012368 298.0686  61.9280 14.87595114489157
SEEDS II (CO-66)        
1 32791U 08021J   17130.50764138  .00000330  00000-0  39481-4 0  9994
2 32791  97.5664 160.7432 0011859 279.5636  80.4242 14.90188194489451
SWISSCUBE               
1 35932U 09051B   17130.33934472  .00000125  00000-0  39239-4 0  9992
2 35932  98.4897 268.1785 0007794  17.3964 342.7499 14.56000240404810
BEESAT                  
1 35933U 09051C   17130.60366412  .00000101  00000-0  33656-4 0  9997
2 35933  98.4934 269.7351 0006328  31.8210 328.3368 14.56121365404879
ITUPSAT 1               
1 35935U 09051E   17130.36471234  .00000094  00000-0  32605-4 0  9995
2 35935  98.5045 269.7450 0008473  23.0103 337.1471 14.55316265404701
TISAT 1                 
1 36799U 10035E   17130.27799995  .00000458  00000-0  53065-4 0  9992
2 36799  98.0564 252.2499 0013894  92.2526 268.0282 14.90353628369931
M-CUBED & EXP-1 PRIME   
1 37855U 11061F   17130.51570966  .00001233  00000-0  72701-4 0  9998
2 37855 101.7221 342.8081 0181132 192.7047 166.9567 15.02899208301138
HORYU 2                 
1 38340U 12025D   17129.97128997  .00000194  00000-0  36719-4 0  9994
2 38340  98.3764 132.5474 0012824  57.5159 302.7286 14.75316266257241
STRAND-1                
1 39090U 13009E   17130.50844106  .00000041  00000-0  29877-4 0  9996
2 39090  98.5576 336.2945 0010233  56.1565 304.0593 14.34963467220074
BRITE-AUSTRIA           
1 39091U 13009F   17130.52426673  .00000026  00000-0  24403-4 0  9997
2 39091  98.5538 335.7099 0011611  62.8204 297.4163 14.35025884220095
UNIBRITE                
1 39092U 13009G   17130.52032812  .00000012  00000-0  19492-4 0  9993
2 39092  98.5546 335.4008 0010409  57.0852 303.1333 14.34900193220066
AIST-2                  
1 39133U 13015D   17130.54000757  .00000097  00000-0  19581-4 0  9993
2 39133  64.8747  44.5297 0036031 288.8130  70.9082 15.04261725222242
SOMP                    
1 39134U 13015E   17130.59270557  .00000903  00000-0  54014-4 0  9992
2 39134  64.8674 347.7955 0034029 278.2402  81.4865 15.17677359223392
BEESAT-2                
1 39136U 13015G   17130.55061292  .00000624  00000-0  43391-4 0  9990
2 39136  64.8707 358.1004 0031338 288.8804  70.8924 15.14986716223187
NEE-01 PEGASUS          
1 39151U 13018B   17129.76053079  .00000155  00000-0  27624-4 0  9995
2 39151  97.9825 221.5246 0017488 170.0066 190.1497 14.79698567217857
CUBEBUG-1 (CAPITAN BETO)
1 39153U 13018D   17130.50611504  .00000181  00000-0  30797-4 0  9998
2 39153  97.9844 223.0056 0017490 166.0290 194.1409 14.80159588218016
ESTCUBE 1               
1 39161U 13021C   17130.46939895  .00000164  00000-0  34082-4 0  9994
2 39161  98.0276 216.9623 0008024 262.0006  98.0298 14.71879296215203
POPACS 1                
1 39268U 13055D   17130.45570409  .00004755  00000-0  13792-3 0  9994
2 39268  81.0074  47.5618 0652361 330.3875  26.1789 14.30600862185325
POPACS 2                
1 39269U 13055E   17130.50234362  .00003981  00000-0  11718-3 0  9992
2 39269  81.0183  61.6101 0702368   7.1616 353.8971 14.19662810184731
POPACS 3                
1 39270U 13055F   17130.52065090  .00002765  00000-0  86558-4 0  9990
2 39270  81.0176  69.2606 0726962  30.6151 333.5416 14.12973007164755
FIREFLY                 
1 39404U 13064AA  17130.52777491  .00025139  00000-0  17732-3 0  9991
2 39404  40.4983 180.7483 0006044 148.4804 211.6386 15.73379582191721
ZACUBE-1 (TSHEPISOSAT)  
1 39417U 13066B   17130.58739861  .00000179  00000-0  29236-4 0  9992
2 39417  97.6331 174.6453 0060174  34.3531 326.1550 14.80686136187216
WNISAT-1                
1 39423U 13066H   17130.46010990  .00000113  00000-0  32158-4 0  9996
2 39423  97.6806 121.9613 0175257 195.7098 163.8631 14.52833975183757
TRITON-1                
1 39427U 13066M   17130.27858317  .00000167  00000-0  34449-4 0  9996
2 39427  97.6395 148.1734 0115944 109.9851 251.3885 14.67436322185296
GOMX 1                  
1 39430U 13066Q   17130.38010330  .00000168  00000-0  39373-4 0  9999
2 39430  97.6647 132.3015 0152448 161.8903 198.7812 14.58846182184429
BRITE-PL                
1 39431U 13066R   17130.42727550 -.00000011  00000-0  81782-5 0  9994
2 39431  97.7036 111.5411 0201506 232.3696 125.9063 14.46834273182798
HUMSAT-D                
1 39433U 13066T   17130.14610177  .00000300  00000-0  35430-4 0  9999
2 39433  97.6552 194.3866 0030659 346.4674  13.5720 14.91384907188340
EAGLE 2                 
1 39436U 13066W   17129.82840663  .00016181  00000-0  47083-3 0  9990
2 39436  97.7065 233.9745 0011735 211.7865 148.2670 15.35448749190762
CUBEBUG-2 (LO-74)       
1 39440U 13066AA  17130.53829430  .00000189  00000-0  33415-4 0  9990
2 39440  97.6320 164.0731 0082202  63.1620 297.7966 14.75427278185347
NEE-02 KRYSAOR          
1 39441U 13066AB  17130.32093954  .00000139  00000-0  26819-4 0  9997
2 39441  97.6301 162.6335 0083613  67.1336 293.8675 14.74600260185242
FUNCUBE-1 (AO-73)       
1 39444U 13066AE  17129.91013224  .00000251  00000-0  37679-4 0  9996
2 39444  97.6347 175.0053 0059332  33.5081 326.9863 14.81412612185354
UWE-3                   
1 39446U 13066AG  17130.57349674  .00000206  00000-0  34300-4 0  9991
2 39446  97.6314 169.0963 0071632  48.9346 311.8025 14.77959815185050
BRITE-TORONTO           
1 40020U 14033L   17130.57478168  .00000091  00000-0  23923-4 0  9998
2 40020  97.8416   3.0328 0089086  86.7091 274.4301 14.66380698154463
DUCHIFAT-1              
1 40021U 14033M   17129.88227440  .00000344  00000-0  41672-4 0  9998
2 40021  97.9208  42.9892 0014645  69.4169 290.8618 14.89844285156899
FLOCK 1C-10             
1 40023U 14033P   17130.55641887  .00000594  00000-0  69662-4 0  9997
2 40023  97.9237  42.7885 0014257  70.5624 289.7118 14.88648092156902
NANOSATC-BR1            
1 40024U 14033Q   17130.33743623  .00000287  00000-0  36357-4 0  9999
2 40024  97.9168  42.3918 0013887  69.1431 291.1272 14.89176317156395
QB50P1                  
1 40025U 14033R   17130.29681116  .00000274  00000-0  35604-4 0  9993
2 40025  97.9151  41.4485 0014053  71.5792 288.6951 14.88387525156344
FLOCK 1C-7              
1 40026U 14033S   17130.32304784  .00000666  00000-0  76063-4 0  9990
2 40026  97.9255  43.2275 0012780  67.4798 292.7766 14.89381198156916
FLOCK 1C-1              
1 40027U 14033T   17130.32435517  .00000637  00000-0  74203-4 0  9992
2 40027  97.9256  42.7714 0014263  67.2822 292.9905 14.88710846156882
POPSAT-HIP-1            
1 40028U 14033U   17130.45954206  .00000369  00000-0  45921-4 0  9995
2 40028  97.9185  41.8725 0015545  67.8296 292.4567 14.88259538156864
FLOCK 1C-2              
1 40029U 14033V   17130.42085303  .00000530  00000-0  62662-4 0  9997
2 40029  97.9240  42.7304 0015918  65.9449 294.3329 14.88728505156887
FLOCK 1C-4              
1 40031U 14033X   17130.50066076  .00000239  00000-0  31699-4 0  9997
2 40031  97.9254  42.8029 0016394  62.9946 297.2901 14.88584511156883
QB50P2                  
1 40032U 14033Y   17130.53475791  .00000254  00000-0  33816-4 0  9999
2 40032  97.9125  40.8445 0013420  66.4847 293.7778 14.87946580156326
FLOCK 1C-11             
1 40033U 14033Z   17130.32955653  .00000756  00000-0  83933-4 0  9999
2 40033  97.9242  43.9203 0013496  58.2876 301.9628 14.90132921156952
ANTELSAT                
1 40034U 14033AA  17130.60034762  .00000213  00000-0  39346-4 0  9997
2 40034  97.8644  15.6869 0060397  54.5709 306.1118 14.73672426154856
FLOCK 1C-9              
1 40035U 14033AB  17130.54537970  .00000704  00000-0  81214-4 0  9996
2 40035  97.9265  43.1981 0013335  57.8570 302.3890 14.88783252156909
FLOCK 1C-6              
1 40036U 14033AC  17130.30019362  .00000451  00000-0  54032-4 0  9998
2 40036  97.9276  43.1475 0013404  60.1687 300.0798 14.88885037156886
PERSEUS-M2              
1 40037U 14033AD  17130.28951982  .00000073  00000-0  14550-4 0  9990
2 40037  97.9150  39.2461 0015887  71.5197 288.7743 14.86211660156186
FLOCK 1C-5              
1 40038U 14033AE  17130.37450102  .00000293  00000-0  37251-4 0  9996
2 40038  97.9281  43.0429 0016162  58.9901 301.2904 14.88879833156889
PERSEUS-M1              
1 40039U 14033AF  17130.27970958  .00000079  00000-0  15334-4 0  9992
2 40039  97.9157  38.8184 0015712  67.8407 292.4473 14.85836154156138
FLOCK 1C-8              
1 40040U 14033AG  17130.01157630  .00000885  00000-0  95612-4 0  9992
2 40040  97.9291  44.6356 0014343  50.2539 309.9903 14.90815128156941
